GLOBALSTAR M062         
1 26082U 00008B   25359.74604877 -.00000087  00000+0  81631-4 0  9991
2 26082  51.9842 252.4603 0007043 153.3380 240.9909 12.43478690520451
GLOBALSTAR M064         
1 26084U 00008D   25359.55359875 -.00000053  00000+0  43586-3 0  9996
2 26084  52.0046  64.1499 0001779  85.6206 274.4830 11.88539635189851
GLOBALSTAR M065         
1 31571U 07020A   25351.59775860 -.00000114  00000+0 -59491-4 0  9998
2 31571  51.9915  28.0181 0009699 356.5964 173.4742 12.62015524856566
GLOBALSTAR M069         
1 31573U 07020C   25359.52758963 -.00000091  00000+0  10886-4 0  9994
2 31573  52.0048  23.6493 0002044 148.1979  17.3910 12.23465188857546
GLOBALSTAR M072         
1 31574U 07020D   25359.76212718 -.00000081  00000+0  40779-4 0  9997
2 31574  51.9898 201.9513 0001411  30.8634  51.1950 11.91654785854302
GLOBALSTAR M071         
1 31576U 07020F   25359.56336375 -.00000026  00000+0  64004-3 0  9998
2 31576  52.0075  54.5611 0001345 135.7347  16.6244 12.18263442518266
